"cnn","ObjectID","Applicant","FacilityType","location","FullAddress","blocklot","block","lot","permit","Status","FoodItems","X","Y","Lat","Long","Schedule"
"6754000","305475","Taco San Buena - Route 25","Truck","HARRISON ST: 21ST ST to 22ND ST (2500 - 2599)","2598 HARRISON ST","3613009","3613","009","11MFF-0003","REQUESTED","Tacos: Burritos","","","","","http://bsm.sfdpw.org/PermitsTracker/reports/report.aspx?title=schedule&report=rptSchedule&params=permit=11MFF-0003&ExportPDF=1&Filename=11MFF-0003_schedule.pdf"
"11834000","305489","Taco San Buena - Route 62","Truck","SHOTWELL ST: 16TH ST to 17TH ST (200 - 299)","200 SHOTWELL ST","3571014","3571","014","11MFF-0006","REQUESTED","Tacos: Burritos","6007701.4119999995","2106595.6329999999","37.764745350719494","-122.41656213947006","http://bsm.sfdpw.org/PermitsTracker/reports/report.aspx?title=schedule&report=rptSchedule&params=permit=11MFF-0006&ExportPDF=1&Filename=11MFF-0006_schedule.pdf"
"11542000","305496","Taco San Buena - Route 2","Truck","SANSOME ST: SUTTER ST to BUSH ST (1 - 99)","1 SANSOME ST","0289003","0289","003","11MFF-0007","REQUESTED","Tacos: Burritos","6012406.4649999999","2115874.0159999998","37.790485146127999","-122.40094044068951","http://bsm.sfdpw.org/PermitsTracker/reports/report.aspx?title=schedule&report=rptSchedule&params=permit=11MFF-0007&ExportPDF=1&Filename=11MFF-0007_schedule.pdf"
"6746000","305513","El Tonayanse #60","Truck","HARRISON ST: 17TH ST to MARIPOSA ST (2050 - 2149)","401 TREAT AVE","3573023","3573","023","11MFF-0008","REQUESTED","Tacos: Burritos: Tortas: Quesadillas","6008587.2230000002","2105981.3050000002","37.763108325376656","-122.41345489002224","http://bsm.sfdpw.org/PermitsTracker/reports/report.aspx?title=schedule&report=rptSchedule&params=permit=11MFF-0008&ExportPDF=1&Filename=11MFF-0008_schedule.pdf"
"6752000","305514","El Tonayanse #60","Truck","HARRISON ST: MISTRAL ST to 20TH ST (2345 - 2399)","2355 FOLSOM ST","3593035","3593","035","11MFF-0008","REQUESTED","Tacos: Burritos: Tortas: Quesadillas","","","","","http://bsm.sfdpw.org/PermitsTracker/reports/report.aspx?title=schedule&report=rptSchedule&params=permit=11MFF-0008&ExportPDF=1&Filename=11MFF-0008_schedule.pdf"
"6740000","305519","El Tonayanse #4 / #36","Truck","HARRISON ST: 13TH ST to 14TH ST (1700 - 1799)","1717 HARRISON ST","3901001","3901","001","11MFF-0009","REQUESTED","Tacos: Burritos: Tortas: Quesadillas","","","","","http://bsm.sfdpw.org/PermitsTracker/reports/report.aspx?title=schedule&report=rptSchedule&params=permit=11MFF-0009&ExportPDF=1&Filename=11MFF-0009_schedule.pdf"
"3742000","305546","Taco's Santana","Truck","CARROLL AVE: QUINT ST to BAY SHORE BLVD \ THORNTON AVE (2100 - 2199)","2101 CARROLL AVE","5436012","5436","012","11MFF-0010","REQUESTED","Tacos: Burritos : Tortas: Quesadillas","6011371.4929999998","2093947.3689999999","37.730221681304918","-122.40297852668597","http://bsm.sfdpw.org/PermitsTracker/reports/report.aspx?title=schedule&report=rptSchedule&params=permit=11MFF-0010&ExportPDF=1&Filename=11MFF-0010_schedule.pdf"
"30766000","305566","San Francisco Carts & Concessions, Inc. DBA Stanley's Steamers Hot Dogs","Push Cart","BEACH ST: HYDE ST intersection","900 BEACH ST","0405007","0405","007","11MFF-0011","REQUESTED","Hot dogs: condiments: soft pretzels: soft drinks: coffee: cold beverages: patries and bakery goods: cookies: ice cream: candies: soups: and popcorn.","6005830.4139999999","2122293.8220000002","37.807743289466885","-122.42414994624656","http://bsm.sfdpw.org/PermitsTracker/reports/report.aspx?title=schedule&report=rptSchedule&params=permit=11MFF-0011&ExportPDF=1&Filename=11MFF-0011_schedule.pdf"
"30766000","305566","San Francisco Carts & Concessions, Inc. DBA Stanley's Steamers Hot Dogs","Push Cart","HYDE ST: BEACH ST intersection","900 BEACH ST","0405007","0405","007","11MFF-0011","REQUESTED","Hot dogs: condiments: soft pretzels: soft drinks: coffee: cold beverages: patries and bakery goods: cookies: ice cream: candies: soups: and popcorn.","6005830.4139999999","2122293.8220000002","37.807743289466885","-122.42414994624656","http://bsm.sfdpw.org/PermitsTracker/reports/report.aspx?title=schedule&report=rptSchedule&params=permit=11MFF-0011&ExportPDF=1&Filename=11MFF-0011_schedule.pdf"
"24908000","305567","San Francisco Carts & Concessions, Inc. DBA Stanley's Steamers Hot Dogs","Push Cart","POST ST: STOCKTON ST intersection","345 STOCKTON ST","0295016","0295","016","11MFF-0012","REQUESTED","Hot dogs: soft drinks: condiments: coffee: juices: pastries: bakery items: desserts: chips: and soups","6010587.5290000001","2115337.4190000002","37.788910149570448","-122.40719603412224","http://bsm.sfdpw.org/PermitsTracker/reports/report.aspx?title=schedule&report=rptSchedule&params=permit=11MFF-0012&ExportPDF=1&Filename=11MFF-0012_schedule.pdf"
"24908000","305567","San Francisco Carts & Concessions, Inc. DBA Stanley's Steamers Hot Dogs","Push Cart","STOCKTON ST: POST ST intersection","345 STOCKTON ST","0295016","0295","016","11MFF-0012","REQUESTED","Hot dogs: soft drinks: condiments: coffee: juices: pastries: bakery items: desserts: chips: and soups","6010587.5290000001","2115337.4190000002","37.788910149570448","-122.40719603412224","http://bsm.sfdpw.org/PermitsTracker/reports/report.aspx?title=schedule&report=rptSchedule&params=permit=11MFF-0012&ExportPDF=1&Filename=11MFF-0012_schedule.pdf"
"6109000","305568","San Francisco Carts & Concessions, Inc. DBA Stanley's Steamers Hot Dogs","Push Cart","GEARY ST: STOCKTON ST to POWELL ST (200 - 299)","251 GEARY ST","0314014","0314","014","11MFF-0013","REQUESTED","Hot dogs: pretzels: soft drinks: condiments: coffee: juices: pastries: ice cream: bakery goods: desserts: soups: chips: and fresh fruit","6010516.2910000002","2114707.4040000001","37.787176291741638","-122.40739807595821","http://bsm.sfdpw.org/PermitsTracker/reports/report.aspx?title=schedule&report=rptSchedule&params=permit=11MFF-0013&ExportPDF=1&Filename=11MFF-0013_schedule.pdf"
"12195000","305569","San Francisco Carts & Concessions, Inc. DBA Stanley's Steamers Hot Dogs","Push Cart","STOCKTON ST: OFARRELL ST to GEARY ST (100 - 199)","233 GEARY ST","0314001","0314","001","11MFF-0014","REQUESTED","Churros: hot chestnuts: beverages: ice cream: popcorn: fresh fruit: fruit juices: and nuts","6010666.5379999997","2114728.4920000001","37.787242602596706","-122.40687973821338","http://bsm.sfdpw.org/PermitsTracker/reports/report.aspx?title=schedule&report=rptSchedule&params=permit=11MFF-0014&ExportPDF=1&Filename=11MFF-0014_schedule.pdf"
"30049000","305571","San Francisco Carts & Concessions, Inc. DBA Stanley's Steamers Hot Dogs","Push Cart","CALIFORNIA ST: DRUMM ST intersection","5 THE EMBARCADERO ","0234 017","0234 ","017","11MFF-0015","REQUESTED","Espresso style coffee: fresh fruit: juices: pastries: bakery goods: desserts: soups: soft drinks: hot dogs: sandwiches: and pretzels","6013916.7199999997","2117244.0269999998","37.794331003246846","-122.39581105302317","http://bsm.sfdpw.org/PermitsTracker/reports/report.aspx?title=schedule&report=rptSchedule&params=permit=11MFF-0015&ExportPDF=1&Filename=11MFF-0015_schedule.pdf"
"30049000","305571","San Francisco Carts & Concessions, Inc. DBA Stanley's Steamers Hot Dogs","Push Cart","DRUMM ST: CALIFORNIA ST intersection","5 THE EMBARCADERO ","0234 017","0234 ","017","11MFF-0015","REQUESTED","Espresso style coffee: fresh fruit: juices: pastries: bakery goods: desserts: soups: soft drinks: hot dogs: sandwiches: and pretzels","6013916.7199999997","2117244.0269999998","37.794331003246846","-122.39581105302317","http://bsm.sfdpw.org/PermitsTracker/reports/report.aspx?title=schedule&report=rptSchedule&params=permit=11MFF-0015&ExportPDF=1&Filename=11MFF-0015_schedule.pdf"
"8742202","305572","The Creme Brulee Cart","Push Cart","MARKET ST: BATTERY ST to SUTTER ST (540 - 558) -- NORTH --","532 MARKET ST","0290012","0290","012","11MFF-0016","REQUESTED","Creme Brulee","6012582.2280000001","2115893.4530000002","37.790548318183241","-122.40033367367877","http://bsm.sfdpw.org/PermitsTracker/reports/report.aspx?title=schedule&report=rptSchedule&params=permit=11MFF-0016&ExportPDF=1&Filename=11MFF-0016_schedule.pdf"
"9305000","305574","San Francisco Soup Company","Truck","MONTGOMERY ST: MERCHANT ST to COLUMBUS AVE \ WASHINGTON ST (600 - 699)","655 MONTGOMERY ST","0208028","0208","028","11MFF-0017","REQUESTED","Soups: salads: sandwiches: beverages: chips and cookies","6011671.3169999998","2117618.8369999998","37.795234973304574","-122.40360683612369","http://bsm.sfdpw.org/PermitsTracker/reports/report.aspx?title=schedule&report=rptSchedule&params=permit=11MFF-0017&ExportPDF=1&Filename=11MFF-0017_schedule.pdf"
"10293000","305575","San Francisco Soup Company","Truck","PARNASSUS AVE: HILLWAY AVE to 03RD AVE (400 - 599)","401 PARNASSUS AVE","1756001","1756","001","11MFF-0017","REQUESTED","Soups: salads: sandwiches: beverages: chips and cookies","5995605.966","2106525.1039999998","37.763864032383225","-122.4583917498439","http://bsm.sfdpw.org/PermitsTracker/reports/report.aspx?title=schedule&report=rptSchedule&params=permit=11MFF-0017&ExportPDF=1&Filename=11MFF-0017_schedule.pdf"
"2767000","305576","San Francisco Soup Company","Truck","BATTERY ST: UNION ST to FILBERT ST (1100 - 1199)","1105 BATTERY ST","0107008","0107","008","11MFF-0017","REQUESTED","Soups: salads: sandwiches: beverages: chips and cookies","6012223.4630000005","2119901.3820000002","37.801533119604464","-122.40185683929856","http://bsm.sfdpw.org/PermitsTracker/reports/report.aspx?title=schedule&report=rptSchedule&params=permit=11MFF-0017&ExportPDF=1&Filename=11MFF-0017_schedule.pdf"
"2953000","305577","San Francisco Soup Company","Truck","BERRY ST: 03RD ST to 04TH ST (100 - 199)","185 BERRY ST","3803005","3803","005","11MFF-0018","REQUESTED","Soups: salads: sandwiches: beverages: chips and cookies","6014943.8689999999","2110666.298","37.776327147789921","-122.39179682107691","http://bsm.sfdpw.org/PermitsTracker/reports/report.aspx?title=schedule&report=rptSchedule&params=permit=11MFF-0018&ExportPDF=1&Filename=11MFF-0018_schedule.pdf"
"8894000","305578","San Francisco Soup Company","Truck","MCALLISTER ST: DR CARLTON B GOODLETT PL \ POLK ST to VAN NESS AVE (400 - 499)","400 MCALLISTER ST","0766002","0766","002","11MFF-0018","REQUESTED","Soups: salads: sandwiches: beverages: chips and cookies","6007110.5810000002","2112352.3689999999","37.780518731997084","-122.41901401922104","http://bsm.sfdpw.org/PermitsTracker/reports/report.aspx?title=schedule&report=rptSchedule&params=permit=11MFF-0018&ExportPDF=1&Filename=11MFF-0018_schedule.pdf"
"6044101","305579","San Francisco Soup Company","Truck","GEARY BLVD: DIVISADERO ST to BAKER ST \ SAINT JOSEPHS AVE (2201 - 2399) -- SOUTH --","2241 GEARY BLVD","1098050","1098","050","11MFF-0018","REQUESTED","Soups: salads: sandwiches: beverages: chips and cookies","6000783.1169999996","2113267.1949999998","37.782672271391348","-122.44096930173077","http://bsm.sfdpw.org/PermitsTracker/reports/report.aspx?title=schedule&report=rptSchedule&params=permit=11MFF-0018&ExportPDF=1&Filename=11MFF-0018_schedule.pdf"
"6108000","305585","San Francisco Carts & Concessions, Inc. DBA Stanley's Steamers Hot Dogs","Push Cart","GEARY ST: GRANT AVE to STOCKTON ST (100 - 199)","100 GEARY ST","0309003","0309","003","11MFF-0020","REQUESTED","Pretzels: hot dogs: coffee: soft drinks: pastries: bakery goods: condiments: potato chips: and desserts","6011136.4409999996","2114963.5249999999","37.787914229724102","-122.40527052309521","http://bsm.sfdpw.org/PermitsTracker/reports/report.aspx?title=schedule&report=rptSchedule&params=permit=11MFF-0020&ExportPDF=1&Filename=11MFF-0020_schedule.pdf"
"10705000","305591","Off the Grid Services, LLC","Truck","POWELL ST: NORTH POINT ST to BEACH ST (2400 - 2499)","A/B 0032/002","0032002","0032","002","11MFF-0021","REQUESTED","everything except for hot dogs","6009451.9890000001","2121711.3689999999","37.806347833697863","-122.41157538374301","http://bsm.sfdpw.org/PermitsTracker/reports/report.aspx?title=schedule&report=rptSchedule&params=permit=11MFF-0021&ExportPDF=1&Filename=11MFF-0021_schedule.pdf"
"13160101","305592","Toasty Melts, LLC.","Truck","VAN NESS AVE: CLAY ST to WASHINGTON ST (1801 - 1899) -- WEST --","1801 VAN NESS AVE","0618002","0618","002","11MFF-0022","REQUESTED","Grilled Cheese Sandwiches","6006008.9309999999","2116666.9410000001","37.792303383075264","-122.42313192209394","http://bsm.sfdpw.org/PermitsTracker/reports/report.aspx?title=schedule&report=rptSchedule&params=permit=11MFF-0022&ExportPDF=1&Filename=11MFF-0022_schedule.pdf"
"149000","305593","Off the Grid Services, LLC","Truck","02ND ST: KING ST to BERRY ST (800 - 899)","A/B 8706/011","8706011","8706","011","11MFF-0021","REQUESTED","everything except for hot dogs","6014590.3140000002","2110723.8730000001","37.776465602688546","-122.39302390502895","http://bsm.sfdpw.org/PermitsTracker/reports/report.aspx?title=schedule&report=rptSchedule&params=permit=11MFF-0021&ExportPDF=1&Filename=11MFF-0021_schedule.pdf"
"106000","305594","Toasty Melts, LLC.","Truck","01ST ST: NATOMA ST to HOWARD ST (165 - 199)","400 HOWARD ST","3720008","3720","008","11MFF-0022","REQUESTED","Grilled Cheese Sandwiches","6013858.0599999996","2115347.0950000002","37.789119207911796","-122.39588103781848","http://bsm.sfdpw.org/PermitsTracker/reports/report.aspx?title=schedule&report=rptSchedule&params=permit=11MFF-0022&ExportPDF=1&Filename=11MFF-0022_schedule.pdf"
"5651000","305596","Toasty Melts, LLC.","Truck","FOLSOM ST: SPEAR ST to MAIN ST (100 - 199)","160 FOLSOM ST","3740030","3740","030","11MFF-0022","REQUESTED","Grilled Cheese Sandwiches","6015055.1449999996","2115547.696","37.789736536058918","-122.39175327292966","http://bsm.sfdpw.org/PermitsTracker/reports/report.aspx?title=schedule&report=rptSchedule&params=permit=11MFF-0022&ExportPDF=1&Filename=11MFF-0022_schedule.pdf"
"11544000","305598","Toasty Melts, LLC.","Truck","SANSOME ST: PINE ST to CALIFORNIA ST (200 - 299)","233 SANSOME ST","0260002","0260","002","11MFF-0022","REQUESTED","Grilled Cheese Sandwiches","6012313.9950000001","2116649.5430000001","37.792609401119016","-122.40131490545147","http://bsm.sfdpw.org/PermitsTracker/reports/report.aspx?title=schedule&report=rptSchedule&params=permit=11MFF-0022&ExportPDF=1&Filename=11MFF-0022_schedule.pdf"
"7033000","305600","Toasty Melts, LLC.","Truck","HOWARD ST: 01ST ST to MALDEN ALY (500 - 589)","555 HOWARD ST","3736086","3736","086","11MFF-0022","REQUESTED","Grilled Cheese Sandwiches","6013558.0630000001","2114719.3390000002","37.787378841809954","-122.39687496716282","http://bsm.sfdpw.org/PermitsTracker/reports/report.aspx?title=schedule&report=rptSchedule&params=permit=11MFF-0022&ExportPDF=1&Filename=11MFF-0022_schedule.pdf"
"10627000","305601","Off the Grid Services, LLC","Truck","POST ST: GRANT AVE to STOCKTON ST (200 - 299)","250 POST ST","0294009","0294","009","11MFF-0023","REQUESTED","everything except for hot dogs","6010874.7719999999","2115307.8999999999","37.788845168620021","-122.40620012684025","http://bsm.sfdpw.org/PermitsTracker/reports/report.aspx?title=schedule&report=rptSchedule&params=permit=11MFF-0023&ExportPDF=1&Filename=11MFF-0023_schedule.pdf"
"254000","305602","Off the Grid Services, LLC","Truck","04TH ST: HOWARD ST to CLEMENTINA ST (200 - 267)","250 04TH ST","3733008","3733","008","11MFF-0024","REQUESTED","everything except for hot dogs","6012012.4970000004","2112922.9109999998","37.78236012101754","-122.40209599456323","http://bsm.sfdpw.org/PermitsTracker/reports/report.aspx?title=schedule&report=rptSchedule&params=permit=11MFF-0024&ExportPDF=1&Filename=11MFF-0024_schedule.pdf"
"2952000","305603","Off the Grid Services, LLC","Truck","BERRY ST: 02ND ST to 03RD ST (15 - 99)","A/B 8706/011","8706011","8706","011","11MFF-0024","REQUESTED","everything except for hot dogs","6014590.3140000002","2110723.8730000001","37.776465602688546","-122.39302390502895","http://bsm.sfdpw.org/PermitsTracker/reports/report.aspx?title=schedule&report=rptSchedule&params=permit=11MFF-0024&ExportPDF=1&Filename=11MFF-0024_schedule.pdf"
"7365000","305604","Off the Grid Services, LLC","Truck","JACKSON ST: BALANCE ST to HOTALING PL (426 - 461)","440 JACKSON ST","0196027","0196","027","11MFF-0024","REQUESTED","everything except for hot dogs","6012032.7120000003","2118004.4079999998","37.796313839419675","-122.40238346880112","http://bsm.sfdpw.org/PermitsTracker/reports/report.aspx?title=schedule&report=rptSchedule&params=permit=11MFF-0024&ExportPDF=1&Filename=11MFF-0024_schedule.pdf"
"3422000","305611","Curry Up Now","Truck","BUSH ST: TREASURY PL to PETRARCH PL (220 - 251)","225 BUSH ST","0289001","0289","001","11MFF-0025","REQUESTED","Chicken Tiki Masala Burritos: Paneer Tiki Masala Burritos: Samosas: Mango Lassi","6012345.54","2116003.915","37.790838419451717","-122.40116037029892","http://bsm.sfdpw.org/PermitsTracker/reports/report.aspx?title=schedule&report=rptSchedule&params=permit=11MFF-0025&ExportPDF=1&Filename=11MFF-0025_schedule.pdf"
"24571000","305613","Curry Up Now","Truck","DRUMM ST: WASHINGTON ST intersection","370 DRUMM ST","0201012","0201","012","11MFF-0025","REQUESTED","Chicken Tiki Masala Burritos: Paneer Tiki Masala Burritos: Samosas: Mango Lassi","6013693.2220000001","2118189.1719999998","37.796913712483537","-122.39665067526364","http://bsm.sfdpw.org/PermitsTracker/reports/report.aspx?title=schedule&report=rptSchedule&params=permit=11MFF-0025&ExportPDF=1&Filename=11MFF-0025_schedule.pdf"
"24571000","305613","Curry Up Now","Truck","WASHINGTON ST: DRUMM ST intersection","370 DRUMM ST","0201012","0201","012","11MFF-0025","REQUESTED","Chicken Tiki Masala Burritos: Paneer Tiki Masala Burritos: Samosas: Mango Lassi","6013693.2220000001","2118189.1719999998","37.796913712483537","-122.39665067526364","http://bsm.sfdpw.org/PermitsTracker/reports/report.aspx?title=schedule&report=rptSchedule&params=permit=11MFF-0025&ExportPDF=1&Filename=11MFF-0025_schedule.pdf"
"9089000","305614","VK Industries, Inc.","Truck","MISSION ST: ECKER ST to SHAW ALY (521 - 548)","536 MISSION ST","3708098","3708","098","11MFF-0026","REQUESTED","Indian Street Food","6012988.8530000001","2115411.9569999999","37.789248909364538","-122.39889295829775","http://bsm.sfdpw.org/PermitsTracker/reports/report.aspx?title=schedule&report=rptSchedule&params=permit=11MFF-0026&ExportPDF=1&Filename=11MFF-0026_schedule.pdf"
"3528000","305615","VK Industries, Inc.","Truck","CALIFORNIA ST: SANSOME ST to LEIDESDORFF ST (400 - 448)","400 CALIFORNIA ST","0238003","0238","003","11MFF-0026","REQUESTED","Indian Street Food","","","","","http://bsm.sfdpw.org/PermitsTracker/reports/report.aspx?title=schedule&report=rptSchedule&params=permit=11MFF-0026&ExportPDF=1&Filename=11MFF-0026_schedule.pdf"
"12657000","305616","VK Industries, Inc.","Truck","TOWNSEND ST: STANFORD ST to CLARENCE PL (130 - 179)","177 TOWNSEND ST","3794122","3794","122","11MFF-0026","REQUESTED","Indian Street Food","6014976.4989999998","2111632.4350000001","37.778981754652705","-122.39175151243407","http://bsm.sfdpw.org/PermitsTracker/reports/report.aspx?title=schedule&report=rptSchedule&params=permit=11MFF-0026&ExportPDF=1&Filename=11MFF-0026_schedule.pdf"
"5169000","305617","VK Industries, Inc.","Truck","ELLIS ST: 04TH ST \ MARKET ST \ STOCKTON ST to POWELL ST (1 - 99)","34 ELLIS ST","0307008","0307","008","11MFF-0026","REQUESTED","Indian Street Food","6009885.0839999998","2114861.9049999998","37.787565165378837","-122.40959283347962","http://bsm.sfdpw.org/PermitsTracker/reports/report.aspx?title=schedule&report=rptSchedule&params=permit=11MFF-0026&ExportPDF=1&Filename=11MFF-0026_schedule.pdf"
"4607000","305618","VK Industries, Inc.","Truck","DAVIS ST: SACRAMENTO ST to CLAY ST (200 - 399)","50 CALIFORNIA ST","0235022","0235","022","11MFF-0027","REQUESTED","Indian Street Food","6013470.7539999997","2117151.8849999998","37.794053183732913","-122.39734769332577","http://bsm.sfdpw.org/PermitsTracker/reports/report.aspx?title=schedule&report=rptSchedule&params=permit=11MFF-0027&ExportPDF=1&Filename=11MFF-0027_schedule.pdf"
"2863000","305619","VK Industries, Inc.","Truck","BEALE ST: DAVIS ST \ MARKET ST \ PINE ST to MISSION ST (1 - 99)","61 BEALE ST","3711013","3711","013","11MFF-0027","REQUESTED","Indian Street Food","6013819.409","2116323.0249999999","37.791796733817833","-122.39608318781529","http://bsm.sfdpw.org/PermitsTracker/reports/report.aspx?title=schedule&report=rptSchedule&params=permit=11MFF-0027&ExportPDF=1&Filename=11MFF-0027_schedule.pdf"
"147000","305620","VK Industries, Inc.","Truck","02ND ST: BRANNAN ST to TOWNSEND ST (600 - 699)","625 2ND ST","3789007","3789","007","11MFF-0027","REQUESTED","Indian Street Food","6015195.7019999996","2112613.963","37.781688975345141","-122.39106181728661","http://bsm.sfdpw.org/PermitsTracker/reports/report.aspx?title=schedule&report=rptSchedule&params=permit=11MFF-0027&ExportPDF=1&Filename=11MFF-0027_schedule.pdf"
"6110000","305621","VK Industries, Inc.","Truck","GEARY ST: POWELL ST to MASON ST (300 - 399)","A/B 0315/022","0315022","0315","022","11MFF-0027","REQUESTED","Indian Street Food","6010043.4579999996","2114642.8420000002","37.786972543974805","-122.40902942568169","http://bsm.sfdpw.org/PermitsTracker/reports/report.aspx?title=schedule&report=rptSchedule&params=permit=11MFF-0027&ExportPDF=1&Filename=11MFF-0027_schedule.pdf"
"9087000","305631","Doc's of the Bay","Truck","MISSION ST: FREMONT ST to 01ST ST (400 - 499)","50 FREMONT ST","3709019","3709","019","11MFF-0029","REQUESTED","Burgers: French Fries: Black Bean Burgers: Mac and Cheese: drinks","6013379.023","2115874.2069999999","37.790539872637531","-122.39757544113601","http://bsm.sfdpw.org/PermitsTracker/reports/report.aspx?title=schedule&report=rptSchedule&params=permit=11MFF-0029&ExportPDF=1&Filename=11MFF-0029_schedule.pdf"
"4800201","305632","Doc's of the Bay","Truck","DIVISADERO ST: PAGE ST to OAK ST (300 - 398) -- EAST --","312 DIVISADERO ST","1217021","1217","021","11MFF-0029","REQUESTED","Burgers: French Fries: Black Bean Burgers: Mac and Cheese: drinks","6001863.9009999996","2109542.9679999999","37.772507977758806","-122.43696354934822","http://bsm.sfdpw.org/PermitsTracker/reports/report.aspx?title=schedule&report=rptSchedule&params=permit=11MFF-0029&ExportPDF=1&Filename=11MFF-0029_schedule.pdf"
"13408000","305633","Doc's of the Bay","Truck","WASHINGTON ST: SANSOME ST to HOTALING PL (500 - 549)","535 WASHINGTON ST","0207033","0207","033","11MFF-0029","REQUESTED","Burgers: French Fries: Black Bean Burgers: Mac and Cheese: drinks","6012074.0460000001","2117582.9199999999","37.795158841620157","-122.40221079523491","http://bsm.sfdpw.org/PermitsTracker/reports/report.aspx?title=schedule&report=rptSchedule&params=permit=11MFF-0029&ExportPDF=1&Filename=11MFF-0029_schedule.pdf"
"24685000","305636","Viet Duong Co., Ltd.","Push Cart","CALIFORNIA ST: SANSOME ST intersection","351 CALIFORNIA ST","0261010A","0261","010A","11MFF-0030","REQUESTED","Vietnamese sandwiches: spring rolls: bottle water: & can soda.","6012479.8490000004","2116741.3560000001","37.792870749741496","-122.4007474940767","http://bsm.sfdpw.org/PermitsTracker/reports/report.aspx?title=schedule&report=rptSchedule&params=permit=11MFF-0030&ExportPDF=1&Filename=11MFF-0030_schedule.pdf"
"24685000","305636","Viet Duong Co., Ltd.","Push Cart","SANSOME ST: CALIFORNIA ST intersection","351 CALIFORNIA ST","0261010A","0261","010A","11MFF-0030","REQUESTED","Vietnamese sandwiches: spring rolls: bottle water: & can soda.","6012479.8490000004","2116741.3560000001","37.792870749741496","-122.4007474940767","http://bsm.sfdpw.org/PermitsTracker/reports/report.aspx?title=schedule&report=rptSchedule&params=permit=11MFF-0030&ExportPDF=1&Filename=11MFF-0030_schedule.pdf"
"13059000","305637","Doc's of the Bay","Truck","VALENCIA ST: SPARROW ST to 16TH ST (450 - 499)","3092 16TH ST","3554016","3554","016","11MFF-0029","REQUESTED","Burgers: French Fries: Black Bean Burgers: Mac and Cheese: drinks","6006249.8650000002","2106782.2140000002","37.765175917067232","-122.42159592209795","http://bsm.sfdpw.org/PermitsTracker/reports/report.aspx?title=schedule&report=rptSchedule&params=permit=11MFF-0029&ExportPDF=1&Filename=11MFF-0029_schedule.pdf"
"1191000","305639","Doc's of the Bay","Truck","22ND ST: MISSION ST to BARTLETT ST (3200 - 3249)","2600 MISSION ST","3636001","3636","001","11MFF-0029","REQUESTED","Burgers: French Fries: Black Bean Burgers: Mac and Cheese: drinks","6006899.2719999999","2103162.0410000002","37.755272359751757","-122.41909297160178","http://bsm.sfdpw.org/PermitsTracker/reports/report.aspx?title=schedule&report=rptSchedule&params=permit=11MFF-0029&ExportPDF=1&Filename=11MFF-0029_schedule.pdf"
"2863000","305641","Doc's of the Bay","Truck","BEALE ST: DAVIS ST \ MARKET ST \ PINE ST to MISSION ST (1 - 99)","25 BEALE ST","3711019","3711","019","11MFF-0029","REQUESTED","Burgers: French Fries: Black Bean Burgers: Mac and Cheese: drinks","6013722.2400000002","2116531.4139999999","37.792363514411022","-122.39643400797567","http://bsm.sfdpw.org/PermitsTracker/reports/report.aspx?title=schedule&report=rptSchedule&params=permit=11MFF-0029&ExportPDF=1&Filename=11MFF-0029_schedule.pdf"
"9297000","305646","San Francisco Carts & Concessions, Inc. DBA Stanley's Steamers Hot Dogs","Push Cart","MONTGOMERY ST: POST ST to SUTTER ST (1 - 99)","2 MONTGOMERY ST","0291007","0291","007","11MFF-0031","REQUESTED","Pretzels: hot dogs: soft drinks: condiments: coffee: juices: pastries: bakery goods: desserts: soups: chips and fresh fruit","6012142.8990000002","2115481.2420000001","37.789391976102721","-122.4018247471207","http://bsm.sfdpw.org/PermitsTracker/reports/report.aspx?title=schedule&report=rptSchedule&params=permit=11MFF-0031&ExportPDF=1&Filename=11MFF-0031_schedule.pdf"
"11542000","305651","Viet Duong Co., Ltd.","Push Cart","SANSOME ST: SUTTER ST to BUSH ST (1 - 99)","1 BUSH ST","0290011","0290","011","11MFF-0033","REQUESTED","Vietnamese Sandwiches: Spring Rolls: Bottled Water & Can Soda","6012652.3729999997","2116027.943","37.790921507269211","-122.40010042373849","http://bsm.sfdpw.org/PermitsTracker/reports/report.aspx?title=schedule&report=rptSchedule&params=permit=11MFF-0033&ExportPDF=1&Filename=11MFF-0033_schedule.pdf"
"8627000","305654","Viet Duong Co., Ltd.","Push Cart","MAIN ST: MARKET ST to MISSION ST (1 - 99)","58 MAIN ST","3711005","3711","005","11MFF-0032","REQUESTED","Prepackaged vietnamese sandwich: spring roll: bottle water: can soda","6013902.4100000001","2116435.193","37.792109338609023","-122.39580386550163","http://bsm.sfdpw.org/PermitsTracker/reports/report.aspx?title=schedule&report=rptSchedule&params=permit=11MFF-0032&ExportPDF=1&Filename=11MFF-0032_schedule.pdf"
"101000","305665","Cupkates Bakery, LLC","Truck","01ST ST: STEVENSON ST to JESSIE ST (21 - 56)","50 01ST ST","3708055","3708","055","11MFF-0034","REQUESTED","Cupcakes","6013063.3300000001","2115738.2829999998","37.790149073725544","-122.39865818460403","http://bsm.sfdpw.org/PermitsTracker/reports/report.aspx?title=schedule&report=rptSchedule&params=permit=11MFF-0034&ExportPDF=1&Filename=11MFF-0034_schedule.pdf"
"9297000","305666","Cupkates Bakery, LLC","Truck","MONTGOMERY ST: POST ST to SUTTER ST (1 - 99)","25 MONTGOMERY ST","0292001A","0292","001A","11MFF-0034","REQUESTED","Cupcakes","6011957.9230000004","2115519.4989999998","37.789486696127838","-122.40246743800449","http://bsm.sfdpw.org/PermitsTracker/reports/report.aspx?title=schedule&report=rptSchedule&params=permit=11MFF-0034&ExportPDF=1&Filename=11MFF-0034_schedule.pdf"
"11543000","305668","Cupkates Bakery, LLC","Truck","SANSOME ST: BUSH ST to PINE ST (100 - 199)","115 SANSOME ST","0268002","0268","002","11MFF-0034","REQUESTED","Cupcakes","6012385.284","2116217.2999999998","37.791426541332143","-122.40103785668795","http://bsm.sfdpw.org/PermitsTracker/reports/report.aspx?title=schedule&report=rptSchedule&params=permit=11MFF-0034&ExportPDF=1&Filename=11MFF-0034_schedule.pdf"
"184001","305672","Subs on Hubs","Truck","03RD ST: TERRY A FRANCOIS BLVD to CHANNEL (1000 - 1099)","1000 03RD ST","8714002","8714","002","11MFF-0035","REQUESTED","Italian subs: Cuban sandwich: Gyro","6015168.3059999999","2110364.21","37.775510138049469","-122.39099930600248","http://bsm.sfdpw.org/PermitsTracker/reports/report.aspx?title=schedule&report=rptSchedule&params=permit=11MFF-0035&ExportPDF=1&Filename=11MFF-0035_schedule.pdf"
"4839000","305674","Subs on Hubs","Truck","DIVISION ST: 08TH ST to HENRY ADAMS ST (50 - 99)","55 DIVISION ST","3911001","3911","001","11MFF-0035","REQUESTED","Italian subs: Cuban sandwich: Gyro","6011517.1919999998","2108140.6290000002","37.769201418855147","-122.40347298418527","http://bsm.sfdpw.org/PermitsTracker/reports/report.aspx?title=schedule&report=rptSchedule&params=permit=11MFF-0035&ExportPDF=1&Filename=11MFF-0035_schedule.pdf"
"3528000","305676","Cupkates Bakery, LLC","Truck","CALIFORNIA ST: SANSOME ST to LEIDESDORFF ST (400 - 448)","430 CALIFORNIA ST","0239029","0239","029","11MFF-0034","REQUESTED","Cupcakes","6012181.8360000001","2116889.9789999998","37.793262206923096","-122.4017890913628","http://bsm.sfdpw.org/PermitsTracker/reports/report.aspx?title=schedule&report=rptSchedule&params=permit=11MFF-0034&ExportPDF=1&Filename=11MFF-0034_schedule.pdf"
"5677000","305677","Subs on Hubs","Truck","FOLSOM ST: RODGERS ST to 08TH ST (1176 - 1199)","1190 FOLSOM ST","3730027","3730","027","11MFF-0035","REQUESTED","Italian subs: Cuban sandwich: Gyro","6009663.1299999999","2110462.1940000001","37.775472162852438","-122.41005002886237","http://bsm.sfdpw.org/PermitsTracker/reports/report.aspx?title=schedule&report=rptSchedule&params=permit=11MFF-0035&ExportPDF=1&Filename=11MFF-0035_schedule.pdf"
"3089000","305680","Subs on Hubs","Truck","BRANNAN ST: 08TH ST to 09TH ST (900 - 999)","934 BRANNAN ST","3781008","3781","008","11MFF-0035","REQUESTED","Italian subs: Cuban sandwich: Gyro","6010635.8109999998","2108878.801","37.771179000548102","-122.40657367342877","http://bsm.sfdpw.org/PermitsTracker/reports/report.aspx?title=schedule&report=rptSchedule&params=permit=11MFF-0035&ExportPDF=1&Filename=11MFF-0035_schedule.pdf"
"262000","305682","Subs on Hubs","Truck","04TH ST: BRYANT ST \ I-80 E OFF RAMP to WELSH ST (500 - 541)","500 04TH ST","3777001","3777","001","11MFF-0035","REQUESTED","Italian subs: Cuban sandwich: Gyro","6013135.4129999997","2111783.0299999998","37.779292880919009","-122.39813117931989","http://bsm.sfdpw.org/PermitsTracker/reports/report.aspx?title=schedule&report=rptSchedule&params=permit=11MFF-0035&ExportPDF=1&Filename=11MFF-0035_schedule.pdf"
"19984000","305683","Subs on Hubs","Truck","04TH ST: CHINA BASIN ST to MISSION BAY NORTH BLVD (1300 - 1399)","A/B 8711/021","8711021","8711","021","11MFF-0035","REQUESTED","Italian subs: Cuban sandwich: Gyro","6014914.8940000003","2108873.1469999999","37.771401945558935","-122.39177164592088","http://bsm.sfdpw.org/PermitsTracker/reports/report.aspx?title=schedule&report=rptSchedule&params=permit=11MFF-0035&ExportPDF=1&Filename=11MFF-0035_schedule.pdf"
"302000","305684","Subs on Hubs","Truck","05TH ST: HARRISON ST \ I-80 W OFF RAMP to PERRY ST (400 - 449)","400 05TH ST","3760001","3760","001","11MFF-0035","REQUESTED","Italian subs: Cuban sandwich: Gyro","6012059.6449999996","2111592.733","37.778710391900887","-122.40183935032969","http://bsm.sfdpw.org/PermitsTracker/reports/report.aspx?title=schedule&report=rptSchedule&params=permit=11MFF-0035&ExportPDF=1&Filename=11MFF-0035_schedule.pdf"
"7833101","305690","Gorilla Pete's","Push Cart","KING ST: 03RD ST to 04TH ST (201 - 299) -- SOUTH --","255 KING ST","8706001","8706","001","11MFF-0037","REQUESTED","Hot dogs: Sausages: Chips: Soft Pretels: Churrios and drinks","","","","","http://bsm.sfdpw.org/PermitsTracker/reports/report.aspx?title=schedule&report=rptSchedule&params=permit=11MFF-0037&ExportPDF=1&Filename=11MFF-0037_schedule.pdf"
"132000","305693","Gorilla Pete's","Push Cart","02ND ST: MISSION ST to MINNA ST (100 - 130)","120 02ND ST","3722002","3722","002","11MFF-0037","REQUESTED","Hot dogs: Sausages: Chips: Soft Pretels: Churrios and drinks","6012781.4900000002","2114784.3390000002","37.787514060738104","-122.39956633142907","http://bsm.sfdpw.org/PermitsTracker/reports/report.aspx?title=schedule&report=rptSchedule&params=permit=11MFF-0037&ExportPDF=1&Filename=11MFF-0037_schedule.pdf"
"2752000","305694","Del Popolo, LLC.","Truck","BATTERY ST: BUSH ST to PINE ST (11 - 99)","22 BATTERY ST","0266006","0266","006","11MFF-0036","REQUESTED","Wood Fired Pizzas","6012870.1320000002","2116261.7910000002","37.791575737799029","-122.39936340551191","http://bsm.sfdpw.org/PermitsTracker/reports/report.aspx?title=schedule&report=rptSchedule&params=permit=11MFF-0036&ExportPDF=1&Filename=11MFF-0036_schedule.pdf"
"5872000","305700","Del Popolo, LLC.","Truck","FRONT ST: JACKSON ST to PACIFIC AVE (600 - 699)","600 FRONT ST","0172010","0172","010","11MFF-0036","REQUESTED","Wood Fired Pizzas","6013015.3150000004","2118400.1140000001","37.797455156782377","-122.3990112228206","http://bsm.sfdpw.org/PermitsTracker/reports/report.aspx?title=schedule&report=rptSchedule&params=permit=11MFF-0036&ExportPDF=1&Filename=11MFF-0036_schedule.pdf"
"7833101","305701","Gorilla Pete's","Push Cart","KING ST: 03RD ST to 04TH ST (201 - 299) -- SOUTH --","207 KING ST","8706268","8706","268","11MFF-0037","REQUESTED","Hot dogs: Sausages: Chips: Soft Pretels: Churrios and drinks","6014984.8499999996","2111102.6310000001","37.777527495404264","-122.39168556991491","http://bsm.sfdpw.org/PermitsTracker/reports/report.aspx?title=schedule&report=rptSchedule&params=permit=11MFF-0037&ExportPDF=1&Filename=11MFF-0037_schedule.pdf"
"7833101","305703","Gorilla Pete's","Push Cart","KING ST: 03RD ST to 04TH ST (201 - 299) -- SOUTH --","A/B 8706/011","8706011","8706","011","11MFF-0037","REQUESTED","Hot dogs: Sausages: Chips: Soft Pretels: Churrios and drinks","6014590.3140000002","2110723.8730000001","37.776465602688546","-122.39302390502895","http://bsm.sfdpw.org/PermitsTracker/reports/report.aspx?title=schedule&report=rptSchedule&params=permit=11MFF-0037&ExportPDF=1&Filename=11MFF-0037_schedule.pdf"
"8629000","305706","Gorilla Pete's","Push Cart","MAIN ST: HOWARD ST to FOLSOM ST (200 - 299)","211 MAIN ST","3740033","3740","033","11MFF-0037","REQUESTED","Hot dogs: Sausages: Chips: Soft Pretels: Churrios and drinks","6014788.2170000002","2115865.4909999999","37.790594306583266","-122.3926990658272","http://bsm.sfdpw.org/PermitsTracker/reports/report.aspx?title=schedule&report=rptSchedule&params=permit=11MFF-0037&ExportPDF=1&Filename=11MFF-0037_schedule.pdf"
"8627000","305709","Bombay Blvd.","Truck","MAIN ST: MARKET ST to MISSION ST (1 - 99)","50 MAIN ST","3711018","3711","018","11MFF-0039","REQUESTED","Indian Style: BBQ: Variety of Curries: Rice: Wraps: Breads (Naan: Rotis: Parathas): Desserts: Pizza.  Beverages: Condiments: Indian Soups: Salads & Appetizer Varieties.","","","","","http://bsm.sfdpw.org/PermitsTracker/reports/report.aspx?title=schedule&report=rptSchedule&params=permit=11MFF-0039&ExportPDF=1&Filename=11MFF-0039_schedule.pdf"
"2863000","305715","Bombay Blvd.","Truck","BEALE ST: DAVIS ST \ MARKET ST \ PINE ST to MISSION ST (1 - 99)","333 MARKET ST","3710020","3710","020","11MFF-0039","REQUESTED","Indian Style: BBQ: Variety of Curries: Rice: Wraps: Breads (Naan: Rotis: Parathas): Desserts: Pizza.  Beverages: Condiments: Indian Soups: Salads & Appetizer Varieties.","6013405.0219999999","2116324.5980000002","37.791777988405975","-122.39751708646931","http://bsm.sfdpw.org/PermitsTracker/reports/report.aspx?title=schedule&report=rptSchedule&params=permit=11MFF-0039&ExportPDF=1&Filename=11MFF-0039_schedule.pdf"
"9090000","305727","Bombay Blvd.","Truck","MISSION ST: SHAW ALY to ANTHONY ST (543 - 586)","561 MISSION ST","3721079","3721","079","11MFF-0040","REQUESTED","Indian Style: BBQ: Variety of Curries: Rice: Wraps: Breads (Naan: Rotis: Parathas): Desserts: Pizza.  Beverages: Condiments: Indian Soups: Salads & Appetizer Varieties.","","","","","http://bsm.sfdpw.org/PermitsTracker/reports/report.aspx?title=schedule&report=rptSchedule&params=permit=11MFF-0040&ExportPDF=1&Filename=11MFF-0040_schedule.pdf"
"165000","305735","Bombay Blvd.","Truck","03RD ST: JESSIE ST to MISSION ST (68 - 99)","86 03RD ST","3706093","3706","093","11MFF-0040","REQUESTED","Indian Style: BBQ: Variety of Curries: Rice: Wraps: Breads (Naan: Rotis: Parathas): Desserts: Pizza.  Beverages: Condiments: Indian Soups: Salads & Appetizer Varieties.","6011914.8459999999","2114325.5839999998","37.786206082103924","-122.40253249134584","http://bsm.sfdpw.org/PermitsTracker/reports/report.aspx?title=schedule&report=rptSchedule&params=permit=11MFF-0040&ExportPDF=1&Filename=11MFF-0040_schedule.pdf"
"5170000","305760","Senor Sisig","Truck","ELLIS ST: POWELL ST to CYRIL MAGNIN ST (100 - 148)","120 ELLIS ST","0326005","0326","005","11MFF-0041","REQUESTED","Filipino fusion food: taco: burrito: nachos: rice plates","6010286.0460000001","2114141.6899999999","37.785610086369147","-122.40815476434545","http://bsm.sfdpw.org/PermitsTracker/reports/report.aspx?title=schedule&report=rptSchedule&params=permit=11MFF-0041&ExportPDF=1&Filename=11MFF-0041_schedule.pdf"
"12316000","305763","Onigilly, LLC","Truck","SUTTER ST: SANSOME ST to MONTGOMERY ST (50 - 99)","120 MONTGOMERY ST","0289005","0289","005","11MFF-0042","REQUESTED","Rice balls & Rice bowls","6012142.6090000002","2115828.7910000002","37.790346247341418","-122.4018501909886","http://bsm.sfdpw.org/PermitsTracker/reports/report.aspx?title=schedule&report=rptSchedule&params=permit=11MFF-0042&ExportPDF=1&Filename=11MFF-0042_schedule.pdf"
"132000","305764","Senor Sisig","Truck","02ND ST: MISSION ST to MINNA ST (100 - 130)","120 02ND ST","3722002","3722","002","11MFF-0041","REQUESTED","Filipino fusion food: taco: burrito: nachos: rice plates","6012781.4900000002","2114784.3390000002","37.787514060738104","-122.39956633142907","http://bsm.sfdpw.org/PermitsTracker/reports/report.aspx?title=schedule&report=rptSchedule&params=permit=11MFF-0041&ExportPDF=1&Filename=11MFF-0041_schedule.pdf"
"6439000","305775","Nick Bernard Foods","Truck","GREEN ST: FRONT ST to BATTERY ST (50 - 99)","55 GREEN ST","0136001","0136","001","11MFF-0043","REQUESTED","Breakfast","6012607.7220000001","2119465.983","37.800359056004616","-122.40049651956416","http://bsm.sfdpw.org/PermitsTracker/reports/report.aspx?title=schedule&report=rptSchedule&params=permit=11MFF-0043&ExportPDF=1&Filename=11MFF-0043_schedule.pdf"
"10992000","305778","Nick Bernard Foods","Truck","RHODE ISLAND ST: DIVISION ST to ALAMEDA ST (1 - 99)","99 RHODE ISLAND ST","3912002","3912","002","11MFF-0043","REQUESTED","Breakfast","6011803.0269999998","2108051.5189999999","37.768972704241847","-122.40247802376844","http://bsm.sfdpw.org/PermitsTracker/reports/report.aspx?title=schedule&report=rptSchedule&params=permit=11MFF-0043&ExportPDF=1&Filename=11MFF-0043_schedule.pdf"
"6884000","305780","Nick Bernard Foods","Truck","HENRY ADAMS ST: ALAMEDA ST to 15TH ST \ KANSAS ST (100 - 199)","102 HENRY ADAMS ST","3916002","3916","002","11MFF-0043","REQUESTED","Breakfast","6011298.4709999999","2107780.6719999998","37.768200839606116","-122.4042041949652","http://bsm.sfdpw.org/PermitsTracker/reports/report.aspx?title=schedule&report=rptSchedule&params=permit=11MFF-0043&ExportPDF=1&Filename=11MFF-0043_schedule.pdf"
"12084000","305786","San Francisco Soup Company","Truck","STANYAN ST: FULTON ST to HAYES ST (400 - 499)","2200 HAYES ST","1191039","1191","039","11MFF-0044","REQUESTED","Soup: salad: sandwiches: beverages: chips & cookies","","","","","http://bsm.sfdpw.org/PermitsTracker/reports/report.aspx?title=schedule&report=rptSchedule&params=permit=11MFF-0044&ExportPDF=1&Filename=11MFF-0044_schedule.pdf"
"6044101","305787","San Francisco Soup Company","Truck","GEARY BLVD: DIVISADERO ST to BAKER ST \ SAINT JOSEPHS AVE (2201 - 2399) -- SOUTH --","2241 GEARY BLVD","1098050","1098","050","11MFF-0044","REQUESTED","Soup: salad: sandwiches: beverages: chips & cookies","6000783.1169999996","2113267.1949999998","37.782672271391348","-122.44096930173077","http://bsm.sfdpw.org/PermitsTracker/reports/report.aspx?title=schedule&report=rptSchedule&params=permit=11MFF-0044&ExportPDF=1&Filename=11MFF-0044_schedule.pdf"
"19989000","305790","San Francisco Soup Company","Truck","04TH ST: CAMPUS WAY to 16TH ST (1700 - 1799)","A/B 8711/007","8711007","8711","007","11MFF-0044","REQUESTED","Soup: salad: sandwiches: beverages: chips & cookies","6014983.8830000004","2108042.2850000001","37.769124411218954","-122.3914749121906","http://bsm.sfdpw.org/PermitsTracker/reports/report.aspx?title=schedule&report=rptSchedule&params=permit=11MFF-0044&ExportPDF=1&Filename=11MFF-0044_schedule.pdf"
"24462000","305791","San Francisco Soup Company","Truck","DR CARLTON B GOODLETT PL: MCALLISTER ST \ POLK ST intersection","350 MCALLISTER ST","0765002","0765","002","11MFF-0044","REQUESTED","Soup: salad: sandwiches: beverages: chips & cookies","6007452.0899999999","2112399.9980000001","37.780668734597413","-122.41783595222172","http://bsm.sfdpw.org/PermitsTracker/reports/report.aspx?title=schedule&report=rptSchedule&params=permit=11MFF-0044&ExportPDF=1&Filename=11MFF-0044_schedule.pdf"
"24462000","305791","San Francisco Soup Company","Truck","MCALLISTER ST: DR CARLTON B GOODLETT PL \ POLK ST intersection","350 MCALLISTER ST","0765002","0765","002","11MFF-0044","REQUESTED","Soup: salad: sandwiches: beverages: chips & cookies","6007452.0899999999","2112399.9980000001","37.780668734597413","-122.41783595222172","http://bsm.sfdpw.org/PermitsTracker/reports/report.aspx?title=schedule&report=rptSchedule&params=permit=11MFF-0044&ExportPDF=1&Filename=11MFF-0044_schedule.pdf"
"24462000","305791","San Francisco Soup Company","Truck","POLK ST: DR CARLTON B GOODLETT PL \ MCALLISTER ST intersection","350 MCALLISTER ST","0765002","0765","002","11MFF-0044","REQUESTED","Soup: salad: sandwiches: beverages: chips & cookies","6007452.0899999999","2112399.9980000001","37.780668734597413","-122.41783595222172","http://bsm.sfdpw.org/PermitsTracker/reports/report.aspx?title=schedule&report=rptSchedule&params=permit=11MFF-0044&ExportPDF=1&Filename=11MFF-0044_schedule.pdf"
"2767000","305792","San Francisco Soup Company","Truck","BATTERY ST: UNION ST to FILBERT ST (1100 - 1199)","1105 BATTERY ST","0107008","0107","008","11MFF-0044","REQUESTED","Soup: salad: sandwiches: beverages: chips & cookies","6012223.4630000005","2119901.3820000002","37.801533119604464","-122.40185683929856","http://bsm.sfdpw.org/PermitsTracker/reports/report.aspx?title=schedule&report=rptSchedule&params=permit=11MFF-0044&ExportPDF=1&Filename=11MFF-0044_schedule.pdf"
"15018101","305800","Mama Cass","Truck","MISSION BAY SOUTH BLVD: BRIDGEVIEW WAY \ VARA ST to 03RD ST (401 - 499) -- NORTH --","A/B 8721/032","8721032","8721","032","11MFF-0045","REQUESTED","vietnamese sliders and iced coffee","6015850.7290000003","2108505.219","37.770443601510102","-122.38850883266349","http://bsm.sfdpw.org/PermitsTracker/reports/report.aspx?title=schedule&report=rptSchedule&params=permit=11MFF-0045&ExportPDF=1&Filename=11MFF-0045_schedule.pdf"
"7832201","305801","Karas Cupcakes","Truck","KING ST: 02ND ST to 03RD ST (100 - 198) -- NORTH --","118 KING ST","3794010","3794","010","11MFF-0046","REQUESTED","Cupcakes","6015306.8569999998","2111936.9920000001","37.779836332883704","-122.39062994974081","http://bsm.sfdpw.org/PermitsTracker/reports/report.aspx?title=schedule&report=rptSchedule&params=permit=11MFF-0046&ExportPDF=1&Filename=11MFF-0046_schedule.pdf"
"3525000","305802","Karas Cupcakes","Truck","CALIFORNIA ST: DAVIS ST to FRONT ST (100 - 199)","100 CALIFORNIA ST","0236017","0236","017","11MFF-0046","REQUESTED","Cupcakes","6013263.6409999998","2117118.1609999998","37.793949052322354","-122.39806196364627","http://bsm.sfdpw.org/PermitsTracker/reports/report.aspx?title=schedule&report=rptSchedule&params=permit=11MFF-0046&ExportPDF=1&Filename=11MFF-0046_schedule.pdf"
"6385000","305803","Karas Cupcakes","Truck","GRANT AVE: CAMPTON PL to TILLMAN PL (231 - 282)","239 GRANT AVE","0294004","0294","004","11MFF-0046","REQUESTED","Cupcakes","6011057.0820000004","2115445.537","37.789233282896141","-122.40557905421024","http://bsm.sfdpw.org/PermitsTracker/reports/report.aspx?title=schedule&report=rptSchedule&params=permit=11MFF-0046&ExportPDF=1&Filename=11MFF-0046_schedule.pdf"
"7032000","305804","Karas Cupcakes","Truck","HOWARD ST: FREMONT ST to 01ST ST (400 - 499)","400 HOWARD ST","3720008","3720","008","11MFF-0046","REQUESTED","Cupcakes","6013858.0599999996","2115347.0950000002","37.789119207911796","-122.39588103781848","http://bsm.sfdpw.org/PermitsTracker/reports/report.aspx?title=schedule&report=rptSchedule&params=permit=11MFF-0046&ExportPDF=1&Filename=11MFF-0046_schedule.pdf"
"9089000","305806","Karas Cupcakes","Truck","MISSION ST: ECKER ST to SHAW ALY (521 - 548)","531 MISSION ST","3721 122 ","3721 ","122 ","11MFF-0046","REQUESTED","Cupcakes","6013212.4079999998","2115266.037","37.788860701261939","-122.39810923838442","http://bsm.sfdpw.org/PermitsTracker/reports/report.aspx?title=schedule&report=rptSchedule&params=permit=11MFF-0046&ExportPDF=1&Filename=11MFF-0046_schedule.pdf"
"6816000","305808","Let's be Frank","Push Cart","HAYES ST: GOUGH ST to OCTAVIA ST (400 - 499)","425 HAYES ST","0817025","0817","025","11MFF-0047","REQUESTED","Hot dogs and chili","6005815.0640000002","2110939.7170000002","37.776566896519526","-122.42339537672727","http://bsm.sfdpw.org/PermitsTracker/reports/report.aspx?title=schedule&report=rptSchedule&params=permit=11MFF-0047&ExportPDF=1&Filename=11MFF-0047_schedule.pdf"
"9115000","306055","Jessica's Grilled Hotdog & Burger","Push Cart","MISSION ST: 15TH ST to 16TH ST (1900 - 1999)","1955 MISSION ST","3553053","3553","053","11MFF-0048","REQUESTED","Hot dogs: hot links: kielbasa (polish): chicken applesausage: hamburger: chicken burger: soda: bottled water and chips","6006884.1279999996","2106807.3900000001","37.76528078828818","-122.41940394095548","http://bsm.sfdpw.org/PermitsTracker/reports/report.aspx?title=schedule&report=rptSchedule&params=permit=11MFF-0048&ExportPDF=1&Filename=11MFF-0048_schedule.pdf"
"2843000","306057","Jessica's Grilled Hotdog & Burger","Push Cart","BEACH ST: JONES ST to LEAVENWORTH ST (500 - 599)","500 BEACH ST","0011008","0011","008","11MFF-0048","REQUESTED","Hot dogs: hot links: kielbasa (polish): chicken applesausage: hamburger: chicken burger: soda: bottled water and chips","6007654.0449999999","2122160.2400000002","37.807479303624184","-122.4178293399211","http://bsm.sfdpw.org/PermitsTracker/reports/report.aspx?title=schedule&report=rptSchedule&params=permit=11MFF-0048&ExportPDF=1&Filename=11MFF-0048_schedule.pdf"
"3075000","306070","Fins on the Hoof / Saveurs","Truck","BRANNAN ST: STANFORD ST to JACK LONDON ALY (324 - 353)","340 BRANNAN ST","3775015","3775","015","11MFF-0049","REQUESTED","Seafood: meats and desserts","6014566.3870000001","2112472.1639999999","37.781264686022816","-122.39322904153769","http://bsm.sfdpw.org/PermitsTracker/reports/report.aspx?title=schedule&report=rptSchedule&params=permit=11MFF-0049&ExportPDF=1&Filename=11MFF-0049_schedule.pdf"
"4313000","306071","Wexler, LLC","Truck","COMMERCIAL ST: LEIDESDORFF ST to MONTGOMERY ST (543 - 599)","565 COMMERCIAL ST","0228010","0228","010","11MFF-0050","REQUESTED","Traditional BBQ: Chicken: Ribs: Sandwiches: Sausages","6012004.8490000004","2117204.7650000001","37.794116655709402","-122.40242362612038","http://bsm.sfdpw.org/PermitsTracker/reports/report.aspx?title=schedule&report=rptSchedule&params=permit=11MFF-0050&ExportPDF=1&Filename=11MFF-0050_schedule.pdf"
"15024000","306079","Streetside","Truck","CHINA BASIN ST: TERRY A FRANCOIS BLVD to 03RD ST (300 - 499)","435 CHINA BASIN ST","8720012","8720","012","11MFF-0051","REQUESTED","salads: sandwiches: meats and desserts","6015658.7709999997","2108751.7710000002","37.771109939740349","-122.38919004026639","http://bsm.sfdpw.org/PermitsTracker/reports/report.aspx?title=schedule&report=rptSchedule&params=permit=11MFF-0051&ExportPDF=1&Filename=11MFF-0051_schedule.pdf"
"10625000","306259","San Francisco Carts & Concessions, Inc. DBA Stanley's Steamers Hot Dogs","Push Cart","POST ST: KEARNY ST to ROBERT KIRK LN (100 - 140)","100 POST ST","0294004","0294","004","11MFF-0052","REQUESTED","Pretzels: soft drinks: hot dogs: condiments: coffee: espresso: pastries: fruit: juice: bakery items: churros: hot chestnuts: and popcorn.","6011057.0820000004","2115445.537","37.789233282896141","-122.40557905421024","http://bsm.sfdpw.org/PermitsTracker/reports/report.aspx?title=schedule&report=rptSchedule&params=permit=11MFF-0052&ExportPDF=1&Filename=11MFF-0052_schedule.pdf"
"11222000","306263","San Francisco Carts & Concessions, Inc. DBA Stanley's Steamers Hot Dogs","Push Cart","SACRAMENTO ST: FRONT ST to BATTERY ST (300 - 399)","1 THE EMBARCADERO ","0230028","0230","028","11MFF-0053","REQUESTED","Pretzels: hot dogs: chips: soft drinks: condiments: coffee: juices: pastries: bakery goods: soups: and desserts","6012811.6579999998","2117380.3709999998","37.794643834619521","-122.39964429852886","http://bsm.sfdpw.org/PermitsTracker/reports/report.aspx?title=schedule&report=rptSchedule&params=permit=11MFF-0053&ExportPDF=1&Filename=11MFF-0053_schedule.pdf"
"2777000","306268","San Francisco Carts & Concessions, Inc. DBA Stanley's Steamers Hot Dogs","Push Cart","BAY ST: TAYLOR ST to JONES ST (500 - 599)","567 BAY ST","0043001","0043","001","11MFF-0054","REQUESTED","Hot dogs: pretzels: chips: soft drinks","","","","","http://bsm.sfdpw.org/PermitsTracker/reports/report.aspx?title=schedule&report=rptSchedule&params=permit=11MFF-0054&ExportPDF=1&Filename=11MFF-0054_schedule.pdf"
"3076000","306333","Nick Bernard Foods","Truck","BRANNAN ST: JACK LONDON ALY to 03RD ST (350 - 399)","361 BRANNAN ST","3788024","3788","024","11MFF-0043","REQUESTED","Breakfast","6014620.5810000002","2112166.7250000001","37.780429030322473","-122.39302017832559","http://bsm.sfdpw.org/PermitsTracker/reports/report.aspx?title=schedule&report=rptSchedule&params=permit=11MFF-0043&ExportPDF=1&Filename=11MFF-0043_schedule.pdf"
"7201000","306336","Taqueria Angelicas","Truck","INDIANA ST: CESAR CHAVEZ ST to MARIN ST (1600 - 1699)","1300 CESAR CHAVEZ ST","4353009","4353","009","11MFF-0055","REQUESTED","Tacos: Burritos: Tortas: Quesadillas: Sodas: Chips: Candy","6015438.8590000002","2100827.8330000001","37.749340313377324","-122.38939728383558","http://bsm.sfdpw.org/PermitsTracker/reports/report.aspx?title=schedule&report=rptSchedule&params=permit=11MFF-0055&ExportPDF=1&Filename=11MFF-0055_schedule.pdf"
"24892000","306360","The New York Frankfurther Co. of CA, Inc. DBA: Annie's Hot Dogs","Push Cart","04TH ST: ELLIS ST \ MARKET ST \ STOCKTON ST intersection","800 MARKET ST","0329001","0329","001","11MFF-0056","REQUESTED","Soft pretzels: hot dogs: sausages: chips: popcorn: sodea: coffee: espresso: cappucino: pastries: ice cream: Italian sausages: shish-ka-bob: churros: juice: water: various drinks.","6010729.6540000001","2114081.5359999998","37.785469746489916","-122.40661576107294","http://bsm.sfdpw.org/PermitsTracker/reports/report.aspx?title=schedule&report=rptSchedule&params=permit=11MFF-0056&ExportPDF=1&Filename=11MFF-0056_schedule.pdf"
"24892000","306360","The New York Frankfurther Co. of CA, Inc. DBA: Annie's Hot Dogs","Push Cart","ELLIS ST: 04TH ST \ MARKET ST \ STOCKTON ST intersection","800 MARKET ST","0329001","0329","001","11MFF-0056","REQUESTED","Soft pretzels: hot dogs: sausages: chips: popcorn: sodea: coffee: espresso: cappucino: pastries: ice cream: Italian sausages: shish-ka-bob: churros: juice: water: various drinks.","6010729.6540000001","2114081.5359999998","37.785469746489916","-122.40661576107294","http://bsm.sfdpw.org/PermitsTracker/reports/report.aspx?title=schedule&report=rptSchedule&params=permit=11MFF-0056&ExportPDF=1&Filename=11MFF-0056_schedule.pdf"
"24892000","306360","The New York Frankfurther Co. of CA, Inc. DBA: Annie's Hot Dogs","Push Cart","MARKET ST: 04TH ST \ ELLIS ST \ STOCKTON ST intersection","800 MARKET ST","0329001","0329","001","11MFF-0056","REQUESTED","Soft pretzels: hot dogs: sausages: chips: popcorn: sodea: coffee: espresso: cappucino: pastries: ice cream: Italian sausages: shish-ka-bob: churros: juice: water: various drinks.","6010729.6540000001","2114081.5359999998","37.785469746489916","-122.40661576107294","http://bsm.sfdpw.org/PermitsTracker/reports/report.aspx?title=schedule&report=rptSchedule&params=permit=11MFF-0056&ExportPDF=1&Filename=11MFF-0056_schedule.pdf"
"24892000","306360","The New York Frankfurther Co. of CA, Inc. DBA: Annie's Hot Dogs","Push Cart","STOCKTON ST: 04TH ST \ ELLIS ST \ MARKET ST intersection","800 MARKET ST","0329001","0329","001","11MFF-0056","REQUESTED","Soft pretzels: hot dogs: sausages: chips: popcorn: sodea: coffee: espresso: cappucino: pastries: ice cream: Italian sausages: shish-ka-bob: churros: juice: water: various drinks.","6010729.6540000001","2114081.5359999998","37.785469746489916","-122.40661576107294","http://bsm.sfdpw.org/PermitsTracker/reports/report.aspx?title=schedule&report=rptSchedule&params=permit=11MFF-0056&ExportPDF=1&Filename=11MFF-0056_schedule.pdf"
"34016000","306450","The New York Frankfurther Co. of CA, Inc. DBA: Annie's Hot Dogs","Push Cart","MARKET ST: POWELL ST intersection","870 MARKET ST","0329005","0329","005","11MFF-0057","REQUESTED","Soft pretzels: hot dogs: sausages: chips: popcorn: soda: espresso: cappucino: pastry: ica cream: ices: italian sausage: shish-ka-bob: churros: juice: water: various drinks","6010493.8590000002","2113955.6579999998","37.785110920447757","-122.40742266827704","http://bsm.sfdpw.org/PermitsTracker/reports/report.aspx?title=schedule&report=rptSchedule&params=permit=11MFF-0057&ExportPDF=1&Filename=11MFF-0057_schedule.pdf"
"34016000","306450","The New York Frankfurther Co. of CA, Inc. DBA: Annie's Hot Dogs","Push Cart","POWELL ST: MARKET ST intersection","870 MARKET ST","0329005","0329","005","11MFF-0057","REQUESTED","Soft pretzels: hot dogs: sausages: chips: popcorn: soda: espresso: cappucino: pastry: ica cream: ices: italian sausage: shish-ka-bob: churros: juice: water: various drinks","6010493.8590000002","2113955.6579999998","37.785110920447757","-122.40742266827704","http://bsm.sfdpw.org/PermitsTracker/reports/report.aspx?title=schedule&report=rptSchedule&params=permit=11MFF-0057&ExportPDF=1&Filename=11MFF-0057_schedule.pdf"
"12195000","306453","The New York Frankfurther Co. of CA, Inc. DBA: Annie's Hot Dogs","Push Cart","STOCKTON ST: OFARRELL ST to GEARY ST (100 - 199)","101 STOCKTON ST","0314002","0314","002","11MFF-0058","REQUESTED","Soft Pretzels: hot dogs: sausage: chips: popcorn: soda: espresso: cappucino: pastries: ice cream: italian sausages: shish-ka-bob: churros: juice: water: various drinks","6010660.159","2114587.8629999999","37.786856111883054","-122.40689189299718","http://bsm.sfdpw.org/PermitsTracker/reports/report.aspx?title=schedule&report=rptSchedule&params=permit=11MFF-0058&ExportPDF=1&Filename=11MFF-0058_schedule.pdf"
"698000","306456","Lee's Catering","Truck","16TH ST: 04TH ST to OWENS ST (600 - 699)","601 16TH ST","8723 008","8723 ","008","11MFF-0028","REQUESTED","Hamburger: Burritos: Chinese Food: Donut: Coffee and Soda","6014927.8770000003","2106828.807","37.765789358016136","-122.39158378431242","http://bsm.sfdpw.org/PermitsTracker/reports/report.aspx?title=schedule&report=rptSchedule&params=permit=11MFF-0028&ExportPDF=1&Filename=11MFF-0028_schedule.pdf"
"19987000","306458","Lee's Catering","Truck","04TH ST: NELSON RISING LN to GENE FRIEND WAY (1500 - 1599)","A/B 8711/007","8711007","8711","007","11MFF-0028","REQUESTED","Hamburger: Burritos: Chinese Food: Donut: Coffee and Soda","6014983.8830000004","2108042.2850000001","37.769124411218954","-122.3914749121906","http://bsm.sfdpw.org/PermitsTracker/reports/report.aspx?title=schedule&report=rptSchedule&params=permit=11MFF-0028&ExportPDF=1&Filename=11MFF-0028_schedule.pdf"
"19986000","306460","Lee's Catering","Truck","04TH ST: MISSION BAY SOUTH BLVD to NELSON RISING LN (1400 - 1499)","A/B /","","","","11MFF-0028","REQUESTED","Hamburger: Burritos: Chinese Food: Donut: Coffee and Soda","","","","","http://bsm.sfdpw.org/PermitsTracker/reports/report.aspx?title=schedule&report=rptSchedule&params=permit=11MFF-0028&ExportPDF=1&Filename=11MFF-0028_schedule.pdf"
"7195000","306461","Lee's Catering","Truck","INDIANA ST: 20TH ST to 22ND ST (800 - 999)","998 INDIANA ST","4105011","4105","011","11MFF-0028","REQUESTED","Hamburger: Burritos: Chinese Food: Donut: Coffee and Soda","6014845.3629999999","2104007.25","37.758037393488074","-122.3916718906821","http://bsm.sfdpw.org/PermitsTracker/reports/report.aspx?title=schedule&report=rptSchedule&params=permit=11MFF-0028&ExportPDF=1&Filename=11MFF-0028_schedule.pdf"
"143000","306802","Nick Bernard Foods","Truck","02ND ST: TABER PL to FEDERAL ST (509 - 532)","524 02ND ST","3775004","3775","004","11MFF-0043","REQUESTED","Breakfast","6014524.7949999999","2112944.5649999999","37.782559481056111","-122.39340599980591","http://bsm.sfdpw.org/PermitsTracker/reports/report.aspx?title=schedule&report=rptSchedule&params=permit=11MFF-0043&ExportPDF=1&Filename=11MFF-0043_schedule.pdf"
"9507000","306863","Fins on the Hoof / Saveurs","Truck","NATOMA ST: 01ST ST to 02ND ST (20 - 99)","500 HOWARD ST","3721011","3721","011","11MFF-0049","REQUESTED","Seafood: meats and desserts","","","","","http://bsm.sfdpw.org/PermitsTracker/reports/report.aspx?title=schedule&report=rptSchedule&params=permit=11MFF-0049&ExportPDF=1&Filename=11MFF-0049_schedule.pdf"
"24214000","306864","Fins on the Hoof / Saveurs","Truck","15TH ST: FLORIDA ST intersection","201 ALABAMA ST","3924 006","3924 ","006","11MFF-0049","REQUESTED","Seafood: meats and desserts","6009014.7460000003","2107680.4730000002","37.767797844491511","-122.41209631756895","http://bsm.sfdpw.org/PermitsTracker/reports/report.aspx?title=schedule&report=rptSchedule&params=permit=11MFF-0049&ExportPDF=1&Filename=11MFF-0049_schedule.pdf"
"24214000","306864","Fins on the Hoof / Saveurs","Truck","FLORIDA ST: 15TH ST intersection","201 ALABAMA ST","3924 006","3924 ","006","11MFF-0049","REQUESTED","Seafood: meats and desserts","6009014.7460000003","2107680.4730000002","37.767797844491511","-122.41209631756895","http://bsm.sfdpw.org/PermitsTracker/reports/report.aspx?title=schedule&report=rptSchedule&params=permit=11MFF-0049&ExportPDF=1&Filename=11MFF-0049_schedule.pdf"
"8747202","306865","Creme Brulee To Go","Push Cart","MARKET ST: 04TH ST \ ELLIS ST \ STOCKTON ST to POWELL ST (800 - 890) -- NORTH --","870 MARKET ST","0329005","0329","005","11MFF-0059","REQUESTED","Creme Brulee: Cannoli: Kettle Corn","6010493.8590000002","2113955.6579999998","37.785110920447757","-122.40742266827704","http://bsm.sfdpw.org/PermitsTracker/reports/report.aspx?title=schedule&report=rptSchedule&params=permit=11MFF-0059&ExportPDF=1&Filename=11MFF-0059_schedule.pdf"
"249000","306866","Creme Brulee To Go","Push Cart","04TH ST: ELLIS ST \ MARKET ST \ STOCKTON ST to STEVENSON ST (1 - 34)","12 04TH ST","3705048","3705","048","11MFF-0059","REQUESTED","Creme Brulee: Cannoli: Kettle Corn","","","","","http://bsm.sfdpw.org/PermitsTracker/reports/report.aspx?title=schedule&report=rptSchedule&params=permit=11MFF-0059&ExportPDF=1&Filename=11MFF-0059_schedule.pdf"
"12090000","306894","Senor Sisig","Truck","STANYAN ST: PAGE ST to HAIGHT ST (650 - 699)","690 STANYAN ST","1228005","1228","005","11MFF-0041","REQUESTED","Filipino fusion food: taco: burrito: nachos: rice plates","5997250.7699999996","2108563.159","37.76955439429203","-122.45285001328911","http://bsm.sfdpw.org/PermitsTracker/reports/report.aspx?title=schedule&report=rptSchedule&params=permit=11MFF-0041&ExportPDF=1&Filename=11MFF-0041_schedule.pdf"
"24673000","306944","Doc's of the Bay","Truck","FRONT ST: PINE ST intersection","101 CALIFORNIA ST","0263011","0263","011","11MFF-0029","REQUESTED","Burgers: French Fries: Black Bean Burgers: Mac and Cheese: drinks","6013245.6679999996","2116754.2919999999","37.792948952834664","-122.39809861316652","http://bsm.sfdpw.org/PermitsTracker/reports/report.aspx?title=schedule&report=rptSchedule&params=permit=11MFF-0029&ExportPDF=1&Filename=11MFF-0029_schedule.pdf"
"24673000","306944","Doc's of the Bay","Truck","PINE ST: FRONT ST intersection","101 CALIFORNIA ST","0263011","0263","011","11MFF-0029","REQUESTED","Burgers: French Fries: Black Bean Burgers: Mac and Cheese: drinks","6013245.6679999996","2116754.2919999999","37.792948952834664","-122.39809861316652","http://bsm.sfdpw.org/PermitsTracker/reports/report.aspx?title=schedule&report=rptSchedule&params=permit=11MFF-0029&ExportPDF=1&Filename=11MFF-0029_schedule.pdf"
"8733000","307106","Del Popolo, LLC.","Truck","MARIPOSA ST: BRYANT ST to FLORIDA ST (2700 - 2799)","2772 MARIPOSA ST","3970004","3970","004","11MFF-0036","REQUESTED","Wood Fired Pizzas","6009371.8389999997","2106032.5","37.763292918728965","-122.41074477292977","http://bsm.sfdpw.org/PermitsTracker/reports/report.aspx?title=schedule&report=rptSchedule&params=permit=11MFF-0036&ExportPDF=1&Filename=11MFF-0036_schedule.pdf"
"4609000","307210","Toasty Melts, LLC.","Truck","DAVIS ST: DAVIS CT \ JACKSON ST to BROADWAY (500 - 699)","10 FRONT ST","0167010","0167","010","11MFF-0022","REQUESTED","Grilled Cheese Sandwiches","6012974.8899999997","2118691.5049999999","37.79825299417152","-122.39917156952434","http://bsm.sfdpw.org/PermitsTracker/reports/report.aspx?title=schedule&report=rptSchedule&params=permit=11MFF-0022&ExportPDF=1&Filename=11MFF-0022_schedule.pdf"
"8748201","307266","Kettle Corn Star","Push Cart","MARKET ST: 05TH ST \ CYRIL MAGNIN ST to MASON ST \ TURK ST (900 - 948) -- NORTH --","900 MARKET ST","0341014","0341","014","11MFF-0060","REQUESTED","Kettle Corn: Funnel Cakes: Waffles: Lemonade","6010295.8890000004","2113677.8769999999","37.784337117213539","-122.40808798850072","http://bsm.sfdpw.org/PermitsTracker/reports/report.aspx?title=schedule&report=rptSchedule&params=permit=11MFF-0060&ExportPDF=1&Filename=11MFF-0060_schedule.pdf"
"8747103","307268","Kettle Corn Star","Push Cart","MARKET ST: POWELL ST to 05TH ST \ CYRIL MAGNIN ST (865 - 899) -- SOUTH --","865 MARKET ST","3705 042","3705 ","042","11MFF-0061","REQUESTED","Kettle Corn: Funnel Cakes: Waffles: Lemonade","6010561.591","2113530.3470000001","37.783946907974226","-122.40715834498367","http://bsm.sfdpw.org/PermitsTracker/reports/report.aspx?title=schedule&report=rptSchedule&params=permit=11MFF-0061&ExportPDF=1&Filename=11MFF-0061_schedule.pdf"
"8763201","307368","Lakshmi Lassi","Push Cart","MARKET ST: 14TH ST to CHURCH ST (0 - 0) -- NORTH --","A/B 3536/012","3536012","3536","012","11MFF-0063","REQUESTED","Lassi Beverage","6004210.0029999996","2107877.398","37.768067795338574","-122.42872939198215","http://bsm.sfdpw.org/PermitsTracker/reports/report.aspx?title=schedule&report=rptSchedule&params=permit=11MFF-0063&ExportPDF=1&Filename=11MFF-0063_schedule.pdf"
"2953000","307543","Tomkat","Truck","BERRY ST: 03RD ST to 04TH ST (100 - 199)","185 BERRY ST","3803005","3803","005","11MFF-0064","REQUESTED","Asian style sandwiches: noodles: vermicelli: snacks: chips:  drinks: & specialty drinks.","6014943.8689999999","2110666.298","37.776327147789921","-122.39179682107691","http://bsm.sfdpw.org/PermitsTracker/reports/report.aspx?title=schedule&report=rptSchedule&params=permit=11MFF-0064&ExportPDF=1&Filename=11MFF-0064_schedule.pdf"
"3525000","307669","Tomkat","Truck","CALIFORNIA ST: DAVIS ST to FRONT ST (100 - 199)","150 CALIFORNIA ST","0236019","0236","019","11MFF-0064","REQUESTED","Asian style sandwiches: noodles: vermicelli: snacks: chips:  drinks: & specialty drinks.","6013145.6030000001","2117020.1570000001","37.793673381504675","-122.39846350948633","http://bsm.sfdpw.org/PermitsTracker/reports/report.aspx?title=schedule&report=rptSchedule&params=permit=11MFF-0064&ExportPDF=1&Filename=11MFF-0064_schedule.pdf"
"13211000","307670","Tomkat","Truck","VERMONT ST: 16TH ST to 17TH ST (300 - 399)","365 VERMONT ST","3958001B","3958","001B","11MFF-0064","REQUESTED","Asian style sandwiches: noodles: vermicelli: snacks: chips:  drinks: & specialty drinks.","6011267.4749999996","2106673.2080000001","37.765158262196046","-122.40423345268724","http://bsm.sfdpw.org/PermitsTracker/reports/report.aspx?title=schedule&report=rptSchedule&params=permit=11MFF-0064&ExportPDF=1&Filename=11MFF-0064_schedule.pdf"
"8275000","307675","Street Eatz","Truck","LEAVENWORTH ST: BEACH ST to JEFFERSON ST \ RICHARD HENRY DANA PL (2800 - 2849)","2801 LEAVENWORTH ST","0026T179B","0026T","179B","11MFF-0065","REQUESTED","Street Food: Cheese steaks: hot dogs: hot links","6006839.8190000001","2121446.426","37.805473497931409","-122.42059645673372","http://bsm.sfdpw.org/PermitsTracker/reports/report.aspx?title=schedule&report=rptSchedule&params=permit=11MFF-0065&ExportPDF=1&Filename=11MFF-0065_schedule.pdf"
"7038000","307688","San Francisco Carts & Concessions, Inc. DBA Stanley's Steamers Hot Dogs","Push Cart","HOWARD ST: 03RD ST to 04TH ST (700 - 799)","701 HOWARD ST","3734091","3734","091","11MFF-0019","REQUESTED","Hot dogs: condiments: soft pretzels: coffee: soft drinks: ice cream: pastries: chips: nuts: and soups","6012391.6119999997","2113335.21","37.783513351245354","-122.40081339110537","http://bsm.sfdpw.org/PermitsTracker/reports/report.aspx?title=schedule&report=rptSchedule&params=permit=11MFF-0019&ExportPDF=1&Filename=11MFF-0019_schedule.pdf"
"3143000","308034","Off the Grid Services, LLC","Truck","BROADWAY: DAVIS ST to FRONT ST (50 - 99)","90 BROADWAY ","0140007","0140","007","11MFF-0021","REQUESTED","everything except for hot dogs","6012853.3870000001","2119060.7620000001","37.799260113502285","-122.39961794865545","http://bsm.sfdpw.org/PermitsTracker/reports/report.aspx?title=schedule&report=rptSchedule&params=permit=11MFF-0021&ExportPDF=1&Filename=11MFF-0021_schedule.pdf"
"3143000","308037","Off the Grid Services, LLC","Truck","BROADWAY: DAVIS ST to FRONT ST (50 - 99)","90 BROADWAY ","0140007","0140","007","11MFF-0024","REQUESTED","everything except for hot dogs","6012853.3870000001","2119060.7620000001","37.799260113502285","-122.39961794865545","http://bsm.sfdpw.org/PermitsTracker/reports/report.aspx?title=schedule&report=rptSchedule&params=permit=11MFF-0024&ExportPDF=1&Filename=11MFF-0024_schedule.pdf"
"12194000","308108","Kettle Corn Star","Push Cart","STOCKTON ST: 04TH ST \ ELLIS ST \ MARKET ST to OFARRELL ST (1 - 99)","55 STOCKTON ST","0327001","0327","001","11MFF-0060","REQUESTED","Kettle Corn: Funnel Cakes: Waffles: Lemonade","6010733.2130000005","2114444.9559999998","37.786467810713035","-122.40662906736455","http://bsm.sfdpw.org/PermitsTracker/reports/report.aspx?title=schedule&report=rptSchedule&params=permit=11MFF-0060&ExportPDF=1&Filename=11MFF-0060_schedule.pdf"
"2801102","310657","La Jefa","Truck","BAY SHORE BLVD: WATERLOO ST to MARENGO ST (501 - 559) -- EAST --","40 WATERLOO ST","5607039","5607","039","11MFF-0066","REQUESTED","Tacos: burritos: quesadillas: tortas: nachos (refried beans: cheese sauce: salsa fresca): carnes (beef: chicken: marinated pork: fried pork): canned beans: rice: sodas: horchata drinks.","6010366.6950000003","2097184.3399999999","37.739053554470743","-122.40668029128099","http://bsm.sfdpw.org/PermitsTracker/reports/report.aspx?title=schedule&report=rptSchedule&params=permit=11MFF-0066&ExportPDF=1&Filename=11MFF-0066_schedule.pdf"
"4803201","310781","Onigilly, LLC","Truck","DIVISADERO ST: HAYES ST to GROVE ST (600 - 698) -- EAST --","628 DIVISADERO ST","1202007","1202","007","11MFF-0042","REQUESTED","Rice balls & Rice bowls","6001728.7220000001","2110647.3450000002","37.775532636743662","-122.43751024665542","http://bsm.sfdpw.org/PermitsTracker/reports/report.aspx?title=schedule&report=rptSchedule&params=permit=11MFF-0042&ExportPDF=1&Filename=11MFF-0042_schedule.pdf"
"371000","310829","Brunch Box","Truck","07TH ST: HOWARD ST to FOLSOM ST (200 - 299)","270 07TH ST","3730008","3730","008","11MFF-0067","REQUESTED","Brunch Box (eggs: proscuitto: croissant: jams: fruit): Hangover Toast (sourdough baguette: cream cheese: olive oil: sea salt): Stewed Fruit Oatmeal: Strawberry Rhubard French Toast: Chicken & Waffles: Miso Soup: Smoked Salmon Club","6010116.3569999998","2110997.71","37.776967956863515","-122.40851998544768","http://bsm.sfdpw.org/PermitsTracker/reports/report.aspx?title=schedule&report=rptSchedule&params=permit=11MFF-0067&ExportPDF=1&Filename=11MFF-0067_schedule.pdf"
"13057002","310831","Brunch Box","Truck","VALENCIA ST: ROSA PARKS LN to 15TH ST (338 - 399)","391 VALENCIA ST","3547009","3547","009","11MFF-0067","REQUESTED","Brunch Box (eggs: proscuitto: croissant: jams: fruit): Hangover Toast (sourdough baguette: cream cheese: olive oil: sea salt): Stewed Fruit Oatmeal: Strawberry Rhubard French Toast: Chicken & Waffles: Miso Soup: Smoked Salmon Club","6006216.8320000004","2107378.4040000001","37.766811051087068","-122.42175252586479","http://bsm.sfdpw.org/PermitsTracker/reports/report.aspx?title=schedule&report=rptSchedule&params=permit=11MFF-0067&ExportPDF=1&Filename=11MFF-0067_schedule.pdf"
"13069000","310834","Brunch Box","Truck","VALENCIA ST: 21ST ST to HILL ST (1000 - 1049)","1024 VALENCIA ST","3617003","3617","003","11MFF-0067","REQUESTED","Brunch Box (eggs: proscuitto: croissant: jams: fruit): Hangover Toast (sourdough baguette: cream cheese: olive oil: sea salt): Stewed Fruit Oatmeal: Strawberry Rhubard French Toast: Chicken & Waffles: Miso Soup: Smoked Salmon Club","6006247.1490000002","2103629.531","37.756519233986651","-122.42138140824414","http://bsm.sfdpw.org/PermitsTracker/reports/report.aspx?title=schedule&report=rptSchedule&params=permit=11MFF-0067&ExportPDF=1&Filename=11MFF-0067_schedule.pdf"
"5452000","310853","JeJe's Hot Dogs","Push Cart","FELL ST: BRODERICK ST to BAKER ST (1300 - 1399)","1377 FELL ST","1214017","1214","017","11MFF-0068","REQUESTED","Hot dogs: tamales: sodas: chips: cookies: coffee: juices: candies: pupusas & tacos.","6000983.0089999996","2109845.2790000001","37.773287940470354","-122.44003231663504","http://bsm.sfdpw.org/PermitsTracker/reports/report.aspx?title=schedule&report=rptSchedule&params=permit=11MFF-0068&ExportPDF=1&Filename=11MFF-0068_schedule.pdf"
"3525000","311631","Nom Nom Sandwiches, Inc.","Unknown","CALIFORNIA ST: DAVIS ST to FRONT ST (100 - 199)","101 CALIFORNIA ST","0263011","0263","011","11MFF-0069","REQUESTED","Vietnamese Sandwiches","6013245.6679999996","2116754.2919999999","37.792948952834664","-122.39809861316652","http://bsm.sfdpw.org/PermitsTracker/reports/report.aspx?title=schedule&report=rptSchedule&params=permit=11MFF-0069&ExportPDF=1&Filename=11MFF-0069_schedule.pdf"
"9545000","311634","Nom Nom Sandwiches, Inc.","Unknown","NEW MONTGOMERY ST: MINNA ST to NATOMA ST (131 - 179)","140 NEW MONTGOMERY ST","3722008","3722","008","11MFF-0069","REQUESTED","Vietnamese Sandwiches","","","","","http://bsm.sfdpw.org/PermitsTracker/reports/report.aspx?title=schedule&report=rptSchedule&params=permit=11MFF-0069&ExportPDF=1&Filename=11MFF-0069_schedule.pdf"
